[{"OBJECT_NAME":"SALSAT","OBJECT_ID":"2020-068K","EPOCH":"2026-03-09T22:26:21.804576","MEAN_MOTION":15.28191989,"ECCENTRICITY":0.00082652,"INCLINATION":97.8859,"RA_OF_ASC_NODE":66.0795,"ARG_OF_PERICENTER":295.8051,"MEAN_ANOMALY":64.2334,"EPHEMERIS_TYPE":0,"CLASSIFICATION_TYPE":"U","NORAD_CAT_ID":46495,"ELEMENT_SET_NO":999,"REV_AT_EPOCH":30019,"BSTAR":0.00040842582,"MEAN_MOTION_DOT":0.00011156,"MEAN_MOTION_DDOT":0},{"OBJECT_NAME":"STARLINK-35388","OBJECT_ID":"2025-262L","EPOCH":"2026-03-09T01:35:19.901184","MEAN_MOTION":15.27590459,"ECCENTRICITY":0.00037438,"INCLINATION":43.0094,"RA_OF_ASC_NODE":299.4635,"ARG_OF_PERICENTER":248.6118,"MEAN_ANOMALY":111.4335,"EPHEMERIS_TYPE":0,"CLASSIFICATION_TYPE":"U","NORAD_CAT_ID":66466,"ELEMENT_SET_NO":999,"REV_AT_EPOCH":1881,"BSTAR":0.0010991513,"MEAN_MOTION_DOT":0.00030121,"MEAN_MOTION_DDOT":0}]
